     2.10           NAVIGATION DATA                         RINEX VERSION / TYPE
SPIDER V4,0,0,3554                      2015 03 16 00:52    PGM / RUN BY / DATE 
   2.0489D-08  0.0000D+00 -1.1921D-07  5.9605D-08           ION ALPHA           
   1.2288D+05 -1.6384D+04 -2.6214D+05  6.5536D+04           ION BETA            
    2.793967723846D-09 1.332267629550D-14   503808     1834 DELTA-UTC: A0,A1,T,W
    16                                                      LEAP SECONDS        
                                                            END OF HEADER       
18 15 03 03 20 00  0.0 3.836578689516D-04 2.842170943040D-12 0.000000000000D+00
    6.500000000000D+01 4.968750000000D+01 5.538444813880D-09 3.651627560945D-02
    2.630054950714D-06 1.579221314751D-02 8.473172783852D-06 5.153761066437D+03
    2.448000000000D+05-1.583248376846D-07 5.994817856341D-01 1.676380634308D-07
    9.254623978179D-01 2.015000000000D+02-1.986312237489D+00-8.770364878785D-09
    5.625234167361D-10 1.000000000000D+00 1.834000000000D+03 0.000000000000D+00
    2.000000000000D+00 0.000000000000D+00-1.117587089539D-08 6.500000000000D+01
    2.448000000000D+05 0.000000000000D+00
22 15 03 03 20 00  0.0 3.244820982218D-04 4.206412995700D-12 0.000000000000D+00
    6.600000000000D+01 4.925000000000D+01 5.518444368136D-09-4.307719431062D-01
    2.661719918251D-06 7.551806280389D-03 8.391216397285D-06 5.153697645187D+03
    2.448000000000D+05-5.029141902924D-08 6.008140139267D-01 8.195638656616D-08
    9.232670229888D-01 1.997187500000D+02-2.065177704952D+00-8.617501379149D-09
    5.771669253640D-10 1.000000000000D+00 1.834000000000D+03 0.000000000000D+00
    2.800000000000D+00 0.000000000000D+00-1.769512891769D-08 6.600000000000D+01
    2.448000000000D+05 0.000000000000D+00
24 15 03 03 20 00  0.0-4.437379539013D-05-6.821210263297D-13 0.000000000000D+00
    5.000000000000D+01-5.500000000000D+00 4.515545271033D-09 2.892907587110D+00
   -3.091990947723D-07 3.122287569568D-03 1.211278140545D-05 5.153688125610D+03
    2.448000000000D+05-4.842877388000D-08 2.697447566284D+00-3.911554813385D-08
    9.544658415392D-01 1.413437500000D+02 3.090945876703D-01-7.879256358478D-09
   -3.978737062038D-10 1.000000000000D+00 1.834000000000D+03 0.000000000000D+00
    2.000000000000D+00 0.000000000000D+00 2.328306436539D-09 5.000000000000D+01
    2.448000000000D+05 0.000000000000D+00
25 15 03 03 20 00  0.0-8.032191544771D-06-2.955857780762D-12 0.000000000000D+00
    2.000000000000D+01 1.030625000000D+02 4.174816936597D-09 9.071058275702D-01
    5.453824996948D-06 4.276706138626D-03 7.485970854759D-06 5.153718196869D+03
    2.448000000000D+05 5.587935447693D-09-2.525318048879D+00 3.725290298462D-08
    9.780214500162D-01 2.419375000000D+02 6.641435239922D-01-8.063549827853D-09
    2.650110408897D-10 1.000000000000D+00 1.834000000000D+03 0.000000000000D+00
    2.000000000000D+00 0.000000000000D+00 5.122274160385D-09 2.000000000000D+01
    2.448000000000D+05 0.000000000000D+00
29 15 03 03 20 00  0.0 5.955453962088D-04 2.387423592154D-12 0.000000000000D+00
    1.280000000000D+02-5.137500000000D+01 4.575547940533D-09 1.394283463560D+00
   -2.719461917877D-06 1.332894084044D-03 2.719461917877D-06 5.153544532776D+03
    2.448000000000D+05 6.332993507385D-08-1.423618366482D+00 4.470348358154D-08
    9.720267730682D-01 3.326875000000D+02-8.235470877676D-01-8.348918889567D-09
   -2.442958890736D-10 1.000000000000D+00 1.834000000000D+03 0.000000000000D+00
    2.000000000000D+00 0.000000000000D+00-9.778887033463D-09 1.280000000000D+02
    2.448000000000D+05 0.000000000000D+00
 2 15 03 03 20 00  0.0 5.513560026884D-04 2.273736754432D-12 0.000000000000D+00
    7.000000000000D+01-8.725000000000D+01 4.456971236522D-09-3.064391160352D+00
   -4.502013325691D-06 1.444777229335D-02 1.145340502262D-05 5.153789009094D+03
    2.448000000000D+05 2.048909664154D-08-4.589864819207D-01-1.899898052216D-07
    9.408610150035D-01 1.446875000000D+02-2.308865978701D+00-7.824612069385D-09
   -5.964534421921D-11 1.000000000000D+00 1.834000000000D+03 0.000000000000D+00
    2.000000000000D+00 0.000000000000D+00-2.048909664154D-08 7.000000000000D+01
    2.448000000000D+05 0.000000000000D+00
31 15 03 03 20 00  0.0 3.220173530281D-04-9.094947017729D-13 0.000000000000D+00
    3.200000000000D+01-3.812500000000D+00 4.050168644909D-09 1.947868720917D+00
    1.490116119385D-07 8.255052380264D-03 1.150183379650D-05 5.153742061615D+03
    2.448000000000D+05 7.823109626770D-08 2.744209466196D+00 7.264316082001D-08
    9.761708074438D-01 1.630312500000D+02-5.380445996029D-01-7.633174980981D-09
   -4.785913887417D-10 1.000000000000D+00 1.834000000000D+03 0.000000000000D+00
    2.000000000000D+00 0.000000000000D+00-1.350417733192D-08 3.200000000000D+01
    2.448000000000D+05 0.000000000000D+00
12 15 03 03 22 00  0.0 2.737687900662D-04 2.955857780762D-12 0.000000000000D+00
    7.300000000000D+01 1.028750000000D+02 3.896233558009D-09 2.651580068153D+00
    5.148351192474D-06 5.351762636565D-03 7.012858986855D-06 5.153728734970D+03
    2.520000000000D+05-5.401670932770D-08-2.479747834719D+00-7.823109626770D-08
    9.894374204858D-01 2.575625000000D+02 5.208872725428D-01-7.794967338270D-09
    3.296565798117D-10 1.000000000000D+00 1.834000000000D+03 0.000000000000D+00
    2.000000000000D+00 0.000000000000D+00-1.257285475731D-08 7.300000000000D+01
    2.520000000000D+05 0.000000000000D+00
24 15 03 03 22 00  0.0-4.437845200300D-05-6.821210263297D-13 0.000000000000D+00
    5.100000000000D+01-5.562500000000D+00 4.521259810986D-09-2.340176981125D+00
   -4.246830940247D-07 3.122001071461D-03 1.193210482597D-05 5.153688510895D+03
    2.520000000000D+05 7.450580596924D-09 2.697390279875D+00-1.247972249985D-07
    9.544628498717D-01 1.460625000000D+02 3.091656021026D-01-7.951760139235D-09
   -3.482287791456D-10 1.000000000000D+00 1.834000000000D+03 0.000000000000D+00
    2.000000000000D+00 0.000000000000D+00 2.328306436539D-09 5.100000000000D+01
    2.520000000000D+05 0.000000000000D+00
 2 15 03 03 22 00  0.0 5.513727664948D-04 2.273736754432D-12 0.000000000000D+00
    8.600000000000D+01-8.143750000000D+01 4.563761368814D-09-2.014435297110D+00
   -4.278495907784D-06 1.444963866379D-02 1.033022999763D-05 5.153783805847D+03
    2.520000000000D+05 1.192092895508D-07-4.590431656075D-01-1.825392246246D-07
    9.408607721591D-01 1.676875000000D+02-2.308710862572D+00-7.854612960045D-09
   -2.500104116787D-11 1.000000000000D+00 1.834000000000D+03 0.000000000000D+00
    2.000000000000D+00 0.000000000000D+00-2.048909664154D-08 8.600000000000D+01
    2.520000000000D+05 0.000000000000D+00
14 15 03 03 22 00  0.0 8.225440979004D-05-3.524291969370D-12 0.000000000000D+00
    2.000000000000D+01-2.909375000000D+01 4.943062847929D-09-5.810016807321D-01
   -1.424923539162D-06 7.765645394102D-03 4.988163709641D-06 5.153784011841D+03
    2.520000000000D+05-7.078051567078D-08 1.740725707573D+00 9.872019290924D-08
    9.669380183811D-01 2.897187500000D+02-1.974873427942D+00-8.407136320443D-09
   -2.278666283440D-10 1.000000000000D+00 1.834000000000D+03 0.000000000000D+00
    2.000000000000D+00 0.000000000000D+00-9.313225746155D-09 2.000000000000D+01
    2.520000000000D+05 0.000000000000D+00
25 15 03 03 22 00  0.0-8.054077625275D-06-2.955857780762D-12 0.000000000000D+00
    2.700000000000D+01 1.071875000000D+02 4.206961001785D-09 1.957389960852D+00
    5.481764674187D-06 4.276701365598D-03 7.534399628639D-06 5.153717145920D+03
    2.520000000000D+05-1.005828380585D-07-2.525376407607D+00 3.725290298462D-09
    9.780238257952D-01 2.430000000000D+02 6.640112630315D-01-7.998547602028D-09
    3.439429019370D-10 1.000000000000D+00 1.834000000000D+03 0.000000000000D+00
    2.000000000000D+00 0.000000000000D+00 5.122274160385D-09 2.700000000000D+01
    2.520000000000D+05 0.000000000000D+00
29 15 03 03 22 00  0.0 5.955626256764D-04 2.387423592154D-12 0.000000000000D+00
    1.290000000000D+02-4.981250000000D+01 4.534831621328D-09 2.444236348301D+00
   -2.633780241013D-06 1.332588610239D-03 2.902001142502D-06 5.153545455933D+03
    2.520000000000D+05-3.166496753693D-08-1.423677892619D+00 4.284083843231D-08
    9.720248932184D-01 3.288750000000D+02-8.232401660916D-01-8.302845522223D-09
   -3.117986979717D-10 1.000000000000D+00 1.834000000000D+03 0.000000000000D+00
    2.800000000000D+00 0.000000000000D+00-9.778887033463D-09 1.290000000000D+02
    2.520000000000D+05 0.000000000000D+00
31 15 03 03 22 00  0.0 3.220108337700D-04-9.094947017729D-13 0.000000000000D+00
    3.300000000000D+01-7.625000000000D+00 4.017667531997D-09 2.997796279619D+00
   -2.421438694000D-07 8.253776933998D-03 1.252256333828D-05 5.153745908737D+03
    2.520000000000D+05-8.754432201385D-08 2.744153995269D+00 1.210719347000D-07
    9.761679693827D-01 1.465312500000D+02-5.378380194781D-01-7.566743676080D-09
   -3.535861603510D-10 1.000000000000D+00 1.834000000000D+03 0.000000000000D+00
    2.000000000000D+00 0.000000000000D+00-1.350417733192D-08 3.300000000000D+01
    2.520000000000D+05 0.000000000000D+00
21 15 03 03 21 59 44.0-4.226081073284D-04-3.979039320257D-12 0.000000000000D+00
    2.200000000000D+01-1.002812500000D+02 4.698052613605D-09 2.115986536590D+00
   -5.403533577919D-06 2.231590694282D-02 1.131743192673D-05 5.153614107132D+03
    2.519840000000D+05 1.210719347000D-07-4.438040459913D-01-4.824250936508D-07
    9.339048161299D-01 1.447187500000D+02-1.939867716191D+00-7.931759249402D-09
   -1.342913141800D-10 1.000000000000D+00 1.834000000000D+03 0.000000000000D+00
    2.000000000000D+00 0.000000000000D+00-1.164153218269D-08 2.200000000000D+01
    2.519840000000D+05 0.000000000000D+00
